{
  "type": "FeatureCollection",
  "features": [
    {
      "type": "Feature",
      "properties": {
        "norad_id": 36083,
        "name": "IRIDIUM 33 DEB",
        "group": "iridium-33-debris",
        "lat": 22.697213034451753,
        "lon": 37.30374844831666,
        "alt_km": 762.4019376848282,
        "timestamp": "2025-12-08T23:34:04.356743+00:00",
        "meta_object_name": "IRIDIUM 33 DEB",
        "meta_object_id": "1997-051VQ",
        "meta_epoch": "2025-12-06T21:32:26.892672",
        "meta_mean_motion": 14.43175138,
        "meta_eccentricity": 0.00247889,
        "meta_inclination": 86.3442,
        "meta_ra_of_asc_node": 36.6683,
        "meta_arg_of_pericenter": 243.3344,
        "meta_mean_anomaly": 116.5319,
        "meta_ephemeris_type": 0,
        "meta_classification_type": "U",
        "meta_norad_cat_id": 36083,
        "meta_element_set_no": 999,
        "meta_rev_at_epoch": 85365,
        "meta_bstar": 0.00098432537,
        "meta_mean_motion_dot": 3.337e-05,
        "meta_mean_motion_ddot": 0,
        "tle_line1": "1 36083U 97051VQ  25340.89753348  .00003337  00000+0  98433-3 0  9998",
        "tle_line2": "2 36083  86.3442  36.6683 0024788 243.3344 116.5319 14.43175138853653"
      },
      "geometry": {
        "type": "Point",
        "coordinates": [
          37.30374844831666,
          22.697213034451753
        ]
      }
    },
    {
      "type": "Feature",
      "properties": {
        "norad_id": 36390,
        "name": "IRIDIUM 33 DEB",
        "group": "iridium-33-debris",
        "lat": 29.032924081412318,
        "lon": 119.04883759819494,
        "alt_km": 629.3262461725262,
        "timestamp": "2025-12-08T23:34:04.356753+00:00",
        "meta_object_name": "IRIDIUM 33 DEB",
        "meta_object_id": "1997-051VU",
        "meta_epoch": "2025-12-08T14:44:10.068288",
        "meta_mean_motion": 14.7351876,
        "meta_eccentricity": 0.00298948,
        "meta_inclination": 86.2903,
        "meta_ra_of_asc_node": 301.2813,
        "meta_arg_of_pericenter": 175.8212,
        "meta_mean_anomaly": 184.3262,
        "meta_ephemeris_type": 0,
        "meta_classification_type": "U",
        "meta_norad_cat_id": 36390,
        "meta_element_set_no": 999,
        "meta_rev_at_epoch": 66201,
        "meta_bstar": 0.0016262375,
        "meta_mean_motion_dot": 0.00010673,
        "meta_mean_motion_ddot": 0,
        "tle_line1": "1 36390U 97051VU  25342.61400542  .00010673  00000+0  16262-2 0  9996",
        "tle_line2": "2 36390  86.2903 301.2813 0029894 175.8212 184.3262 14.73518760662010"
      },
      "geometry": {
        "type": "Point",
        "coordinates": [
          119.04883759819494,
          29.032924081412318
        ]
      }
    },
    {
      "type": "Feature",
      "properties": {
        "norad_id": 36483,
        "name": "IRIDIUM 33 DEB",
        "group": "iridium-33-debris",
        "lat": 28.67968902460619,
        "lon": -127.88721203376538,
        "alt_km": 730.7166338289235,
        "timestamp": "2025-12-08T23:34:04.356763+00:00",
        "meta_object_name": "IRIDIUM 33 DEB",
        "meta_object_id": "1997-051VZ",
        "meta_epoch": "2025-12-08T11:14:38.908896",
        "meta_mean_motion": 14.45787314,
        "meta_eccentricity": 0.00108756,
        "meta_inclination": 86.3794,
        "meta_ra_of_asc_node": 54.3174,
        "meta_arg_of_pericenter": 137.8715,
        "meta_mean_anomaly": 222.3325,
        "meta_ephemeris_type": 0,
        "meta_classification_type": "U",
        "meta_norad_cat_id": 36483,
        "meta_element_set_no": 999,
        "meta_rev_at_epoch": 65084,
        "meta_bstar": 0.00090663472,
        "meta_mean_motion_dot": 3.235e-05,
        "meta_mean_motion_ddot": 0,
        "tle_line1": "1 36483U 97051VZ  25342.46850589  .00003235  00000+0  90663-3 0  9996",
        "tle_line2": "2 36483  86.3794  54.3174 0010875 137.8715 222.3325 14.45787314650846"
      },
      "geometry": {
        "type": "Point",
        "coordinates": [
          -127.88721203376538,
          28.67968902460619
        ]
      }
    },
    {
      "type": "Feature",
      "properties": {
        "norad_id": 36490,
        "name": "IRIDIUM 33 DEB",
        "group": "iridium-33-debris",
        "lat": -1.7979443477540906,
        "lon": 12.043604205204845,
        "alt_km": 645.2783912700879,
        "timestamp": "2025-12-08T23:34:04.356773+00:00",
        "meta_object_name": "IRIDIUM 33 DEB",
        "meta_object_id": "1997-051WG",
        "meta_epoch": "2025-12-08T12:11:12.801984",
        "meta_mean_motion": 14.76053442,
        "meta_eccentricity": 0.00055405,
        "meta_inclination": 86.3655,
        "meta_ra_of_asc_node": 12.3717,
        "meta_arg_of_pericenter": 92.4911,
        "meta_mean_anomaly": 267.6943,
        "meta_ephemeris_type": 0,
        "meta_classification_type": "U",
        "meta_norad_cat_id": 36490,
        "meta_element_set_no": 999,
        "meta_rev_at_epoch": 86422,
        "meta_bstar": 0.0019791123,
        "meta_mean_motion_dot": 0.0001368,
        "meta_mean_motion_ddot": 0,
        "tle_line1": "1 36490U 97051WG  25342.50778706  .00013680  00000+0  19791-2 0  9996",
        "tle_line2": "2 36490  86.3655  12.3717 0005540  92.4911 267.6943 14.76053442864223"
      },
      "geometry": {
        "type": "Point",
        "coordinates": [
          12.043604205204845,
          -1.7979443477540906
        ]
      }
    },
    {
      "type": "Feature",
      "properties": {
        "norad_id": 36493,
        "name": "IRIDIUM 33 DEB",
        "group": "iridium-33-debris",
        "lat": 68.52003215251183,
        "lon": 22.665327611781333,
        "alt_km": 665.3794650721129,
        "timestamp": "2025-12-08T23:34:04.356784+00:00",
        "meta_object_name": "IRIDIUM 33 DEB",
        "meta_object_id": "1997-051WK",
        "meta_epoch": "2025-12-08T08:30:12.453984",
        "meta_mean_motion": 14.65147155,
        "meta_eccentricity": 0.00107202,
        "meta_inclination": 86.3577,
        "meta_ra_of_asc_node": 13.6284,
        "meta_arg_of_pericenter": 18.6274,
        "meta_mean_anomaly": 341.533,
        "meta_ephemeris_type": 0,
        "meta_classification_type": "U",
        "meta_norad_cat_id": 36493,
        "meta_element_set_no": 999,
        "meta_rev_at_epoch": 74454,
        "meta_bstar": 0.0016475762,
        "meta_mean_motion_dot": 8.887e-05,
        "meta_mean_motion_ddot": 0,
        "tle_line1": "1 36493U 97051WK  25342.35431081  .00008887  00000+0  16476-2 0  9994",
        "tle_line2": "2 36493  86.3577  13.6284 0010720  18.6274 341.5330 14.65147155744547"
      },
      "geometry": {
        "type": "Point",
        "coordinates": [
          22.665327611781333,
          68.52003215251183
        ]
      }
    },
    {
      "type": "Feature",
      "properties": {
        "norad_id": 37548,
        "name": "IRIDIUM 33 DEB",
        "group": "iridium-33-debris",
        "lat": 82.30096068120484,
        "lon": 73.15970095124376,
        "alt_km": 722.6494102078159,
        "timestamp": "2025-12-08T23:34:04.356794+00:00",
        "meta_object_name": "IRIDIUM 33 DEB",
        "meta_object_id": "1997-051XH",
        "meta_epoch": "2025-11-29T22:23:36.250944",
        "meta_mean_motion": 14.5113469,
        "meta_eccentricity": 0.00243457,
        "meta_inclination": 86.3524,
        "meta_ra_of_asc_node": 48.9393,
        "meta_arg_of_pericenter": 232.6782,
        "meta_mean_anomaly": 127.2204,
        "meta_ephemeris_type": 0,
        "meta_classification_type": "U",
        "meta_norad_cat_id": 37548,
        "meta_element_set_no": 999,
        "meta_rev_at_epoch": 65346,
        "meta_bstar": 0.0012745087,
        "meta_mean_motion_dot": 5.093e-05,
        "meta_mean_motion_ddot": 0,
        "tle_line1": "1 37548U 97051XH  25333.93305846  .00005093  00000+0  12745-2 0  9990",
        "tle_line2": "2 37548  86.3524  48.9393 0024345 232.6782 127.2204 14.51134690653467"
      },
      "geometry": {
        "type": "Point",
        "coordinates": [
          73.15970095124376,
          82.30096068120484
        ]
      }
    },
    {
      "type": "Feature",
      "properties": {
        "norad_id": 37550,
        "name": "IRIDIUM 33 DEB",
        "group": "iridium-33-debris",
        "lat": -83.96299604507473,
        "lon": -117.6529065853294,
        "alt_km": 680.8616473292659,
        "timestamp": "2025-12-08T23:34:04.356805+00:00",
        "meta_object_name": "IRIDIUM 33 DEB",
        "meta_object_id": "1997-051XK",
        "meta_epoch": "2025-12-06T21:15:18.690336",
        "meta_mean_motion": 14.67089693,
        "meta_eccentricity": 0.00053572,
        "meta_inclination": 86.377,
        "meta_ra_of_asc_node": 26.47,
        "meta_arg_of_pericenter": 124.88,
        "meta_mean_anomaly": 235.2918,
        "meta_ephemeris_type": 0,
        "meta_classification_type": "U",
        "meta_norad_cat_id": 37550,
        "meta_element_set_no": 999,
        "meta_rev_at_epoch": 86247,
        "meta_bstar": 0.0020360196,
        "meta_mean_motion_dot": 0.00011461,
        "meta_mean_motion_ddot": 0,
        "tle_line1": "1 37550U 97051XK  25340.88563299  .00011461  00000+0  20360-2 0  9991",
        "tle_line2": "2 37550  86.3770  26.4700 0005357 124.8800 235.2918 14.67089693862475"
      },
      "geometry": {
        "type": "Point",
        "coordinates": [
          -117.6529065853294,
          -83.96299604507473
        ]
      }
    }
  ]
}